OPS 6582 (TRANSIT 5B-5) 
1 00965U 64083D   21016.79201019  .00000005  00000-0 -54742-5 0  9993
2 00965  90.0171 194.0543 0039145 300.6980  71.3409 13.56750500775571
OSCAR 7 (AO-7)          
1 07530U 74089B   21016.86634934 -.00000039  00000-0  42766-4 0  9998
2 07530 101.8336 351.6581 0012143 314.6449  99.1661 12.53646965112733
UOSAT 2 (UO-11)         
1 14781U 84021B   21016.74333993  .00000083  00000-0  16203-4 0  9994
2 14781  97.5897  24.0880 0007569 211.8323 148.2435 14.83237710963446
NOAA 9                  
1 15427U 84123A   21016.83432208 -.00000008  00000-0  18921-4 0  9991
2 15427  98.9730 338.2849 0014614 187.5834 231.2956 14.16119237863499
LUSAT (LO-19)           
1 20442U 90005G   21016.82857179  .00000012  00000-0  20773-4 0  9999
2 20442  98.7217 331.0888 0010734 245.2345 114.7722 14.32973509619114
ITAMSAT (IO-26)         
1 22826U 93061D   21016.77225475 -.00000013  00000-0  12724-4 0  9993
2 22826  98.9183  30.5297 0009976 102.8052 257.4245 14.30441221424545
RADIO ROSTO (RS-15)     
1 23439U 94085A   21016.95423729 -.00000037  00000-0  15882-3 0  9996
2 23439  64.8174 260.9800 0156030   2.4556 357.7101 11.27570046 73259
JAS-2 (FO-29)           
1 24278U 96046B   21016.79123983  .00000002  00000-0  37652-4 0  9999
2 24278  98.5846 104.7608 0350395 182.3442 177.6070 13.53101870205734
NOAA 15                 
1 25338U 98030A   21016.81016149  .00000009  00000-0  22197-4 0  9995
2 25338  98.6986  46.5649 0010440   8.0906 352.0440 14.26008841179385
TECHSAT 1B (GO-32)      
1 25397U 98043D   21016.81417068 -.00000010  00000-0  15300-4 0  9990
2 25397  98.7544 322.9290 0001870 128.7857 231.3489 14.23699358169912
ISS (ZARYA)             
1 25544U 98067A   21016.87122993  .00000996  00000-0  25949-4 0  9998
2 25544  51.6457  11.1534 0000276 258.6259 174.0627 15.49297925265145
ORSTED                  
1 25635U 99008B   21016.85642265  .00000119  00000-0  35734-4 0  9992
2 25635  96.4550 356.8783 0139530  30.0949 330.8174 14.48256435155502
PHASE 3D (AO-40)        
1 26609U 00072B   21016.10495489 -.00000131  00000-0  00000-0 0  9998
2 26609   9.1867 346.8974 7935363 216.5586  47.0342  1.25586155 92678
PCSAT (NO-44)           
1 26931U 01043C   21016.54088576  .00000048  00000-0  50059-4 0  9997
2 26931  67.0525 312.4874 0007419 272.0474  87.9777 14.30602905  7512
SAUDISAT 1C (SO-50)     
1 27607U 02058C   21016.57102145  .00000002  00000-0  20598-4 0  9992
2 27607  64.5560  82.7677 0029345  88.9978 271.4486 14.75702761972166
CUTE-1 (CO-55)          
1 27844U 03031E   21016.73460900  .00000036  00000-0  35636-4 0  9997
2 27844  98.6816  27.2393 0010323 152.9041 207.2678 14.22282335910411
CUBESAT XI-IV (CO-57)   
1 27848U 03031J   21016.75321952  .00000026  00000-0  31737-4 0  9993
2 27848  98.6877  27.8257 0010002 165.1766 194.9707 14.21863124910258
MOZHAYETS 4 (RS-22)     
1 27939U 03042A   21016.82186791  .00000080  00000-0  22909-4 0  9995
2 27939  98.1176 155.2048 0013685  44.4110 315.8191 14.66933253925293
INMARSAT 4-F1           
1 28628U 05009A   21016.77612420 -.00000265  00000-0  00000-0 0  9993
2 28628   3.2818  29.4101 0002602 273.8902 235.9927  1.00273225 57841
NOAA 18                 
1 28654U 05018A   21016.79680510  .00000081  00000-0  68065-4 0  9993
2 28654  99.0163  80.9152 0013977 353.8283   6.2714 14.12573441807039
CUBESAT XI-V            
1 28895U 05043F   21016.82084272  .00000122  00000-0  32230-4 0  9996
2 28895  98.0358 153.5936 0016028 331.9630  28.0708 14.63854133811824
METOP-A                 
1 29499U 06044A   21016.78932292 -.00000021  00000-0  97479-5 0  9994
2 29499  98.4947  61.9448 0001307  71.6222  19.3530 14.21495499739018
CARTOSAT-2 (IRS-P7)     
1 29710U 07001B   21016.73509169  .00001363  00000-0  48869-4 0  9999
2 29710  97.8902  92.1917 0167305  52.4216 309.2077 15.18503190757591
FALCONSAT-3             
1 30776U 07006E   21016.34644696  .00003060  00000-0  77783-4 0  9993
2 30776  35.4356 356.7158 0003321 295.3975  64.6408 15.39322256769643
CAPE1                   
1 31130U 07012P   21016.79541811  .00000177  00000-0  47624-4 0  9996
2 31130  98.2207 317.8494 0097097  94.3381 266.8919 14.56618829729878
CARTOSAT-2A             
1 32783U 08021A   21016.83191420 -.00000005  00000-0  63348-5 0  9997
2 32783  97.8954  79.1507 0013455  44.4059 315.8197 14.78703893686677
CUTE-1.7+APD II (CO-65) 
1 32785U 08021C   21016.82844411  .00000235  00000-0  30863-4 0  9992
2 32785  97.5947   1.7202 0013858 140.6683 219.5543 14.88612193689615
COMPASS-1               
1 32787U 08021E   21016.69691013  .00000181  00000-0  22105-4 0  9997
2 32787  97.5194  13.9739 0013831  78.8319 281.4455 14.93918150690878
AAUSAT-II               
1 32788U 08021F   21016.73685322  .00000874  00000-0  84092-4 0  9991
2 32788  97.4975  17.8472 0013055  63.2825 296.9731 14.95346570691186
DELFI-C3 (DO-64)        
1 32789U 08021G   21016.66462339  .00001435  00000-0  96085-4 0  9994
2 32789  97.3947  57.7840 0010571 308.6466  51.3816 15.08394237693945
SEEDS II (CO-66)        
1 32791U 08021J   21016.86001606  .00000415  00000-0  46963-4 0  9992
2 32791  97.5573   7.7918 0014625 109.2370 251.0433 14.91248107690181
YUBILEINY (RS-30)       
1 32953U 08025A   21016.83887136  .00000028  00000-0  12906-3 0  9992
2 32953  82.5044 145.2283 0018627 308.6124  51.3287 12.43099510574141
FENGYUN 3A              
1 32958U 08026A   21016.84774490 -.00000004  00000-0  17839-4 0  9993
2 32958  98.4314 357.7845 0009861  79.6744 280.5544 14.18645015654972
PRISM (HITOMI)          
1 33493U 09002B   21016.85293279  .00000222  00000-0  24666-4 0  9992
2 33493  98.1697 332.3063 0015993  69.1359 291.1572 14.97377497651630
STARS (KUKAI)           
1 33498U 09002G   21016.68147487  .00000210  00000-0  35727-4 0  9994
2 33498  98.2349 253.2865 0012014 111.3181 248.9313 14.79261424645026
KKS-1 (KISEKI)          
1 33499U 09002H   21016.71705423  .00000107  00000-0  23622-4 0  9995
2 33499  98.2892 243.0986 0009456 157.8196 202.3423 14.75607192644036
NOAA 19                 
1 33591U 09005A   21016.81688626  .00000014  00000-0  32830-4 0  9995
2 33591  99.1927  33.6895 0013738 194.2166 165.8620 14.12448664615252
SWISSCUBE               
1 35932U 09051B   21016.53362914  .00000119  00000-0  37774-4 0  9993
2 35932  98.6066 211.6995 0007401 186.1232 173.9875 14.56476826600844
BEESAT-1                
1 35933U 09051C   21016.78041693  .00000098  00000-0  33100-4 0  9994
2 35933  98.6044 213.8104 0005384 196.0918 164.0109 14.56542224600955
ITUPSAT1                
1 35935U 09051E   21016.83203117  .00000086  00000-0  30799-4 0  9991
2 35935  98.6150 214.0305 0007696 199.0144 161.0766 14.55680398600717
XIWANG-1 (HOPE-1)       
1 36122U 09072B   21016.82538852 -.00000032  00000-0  26081-4 0  9990
2 36122 100.1131   3.8948 0008183  92.4805 267.7245 13.16358682532942
CARTOSAT-2B             
1 36795U 10035A   21016.80024695 -.00000051  00000-0  00000+0 0  9999
2 36795  97.8919  78.5680 0015365 110.0469 250.1402 14.78654514567715
TISAT 1                 
1 36799U 10035E   21016.71544666  .00000526  00000-0  58569-4 0  9992
2 36799  98.2020 201.3968 0012029 357.0590   3.0554 14.91571573570719
FENGYUN 3B              
1 37214U 10059A   21016.83253822 -.00000015  00000-0  15772-4 0  9998
2 37214  99.0690   8.0971 0017467  25.9417  36.8631 14.15972348527836
JUGNU                   
1 37839U 11058B   21016.82717773  .00000327  00000-0  32072-4 0  9997
2 37839  19.9624  68.7585 0018698 220.3686 295.9830 14.12700696478990
SRMSAT                  
1 37841U 11058D   21016.69119772  .00000295  00000-0  17016-4 0  9995
2 37841  19.9711 138.3223 0011997  66.3852 322.0172 14.10683145478270
M-CUBED & EXP-1 PRIME   
1 37855U 11061F   21016.81959606  .00001561  00000-0  82960-4 0  9993
2 37855 101.7265 221.5804 0168627 161.4844 199.2606 15.07091901503332
HORYU-2                 
1 38340U 12025D   21016.76737027  .00000171  00000-0  32734-4 0  9999
2 38340  98.2537  81.1533 0012681  82.0140 278.2507 14.75961146456019
METOP-B                 
1 38771U 12049A   21016.84963990 -.00000002  00000-0  18870-4 0  9991
2 38771  98.7021  79.0762 0002473 100.5478  32.5188 14.21483155432344
SARAL                   
1 39086U 13009A   21016.77213827 -.00000021  00000-0  85299-5 0  9998
2 39086  98.5411 205.0972 0001230  45.7411 314.3874 14.32042230412535
AAUSAT 3                
1 39087U 13009B   21016.61009216  .00000087  00000-0  44772-4 0  9998
2 39087  98.4340 223.2253 0012876  11.3058 348.8409 14.35887838413401
STRAND-1                
1 39090U 13009E   21016.83910723  .00000031  00000-0  25724-4 0  9995
2 39090  98.4366 222.5038 0009446  16.7135 343.4360 14.35164120413296
BRITE-AUSTRIA           
1 39091U 13009F   21016.82473928  .00000008  00000-0  17790-4 0  9994
2 39091  98.4363 221.6202 0010936  22.6804 337.4862 14.35171317413322
UNIBRITE                
1 39092U 13009G   21016.80005419  .00000010  00000-0  18400-4 0  9991
2 39092  98.4390 221.2851 0009709  18.2731 341.8802 14.35043086413284
SOMP                    
1 39134U 13015E   21016.81592178  .00001371  00000-0  68875-4 0  9991
2 39134  64.8633 305.3221 0012706 219.5772 140.4429 15.21879945428130
BEESAT-3                
1 39135U 13015F   21016.83194013  .00001126  00000-0  63237-4 0  9995
2 39135  64.8680 332.0244 0017899 208.3951 151.6202 15.18832320427615
BEESAT-2                
1 39136U 13015G   21016.30616859  .00001094  00000-0  62532-4 0  9996
2 39136  64.8743 339.5006 0029362 263.5284  96.2499 15.18207634427418
NEE-01 PEGASO           
1 39151U 13018B   21016.81106882  .00000171  00000-0  29361-4 0  9990
2 39151  97.9763 120.2315 0018129 127.0943 233.1930 14.80271293417238
CUBEBUG-1 (CAPITAN BETO)
1 39153U 13018D   21016.81987468  .00000229  00000-0  36560-4 0  9992
2 39153  97.9889 123.0954 0018072 122.9428 237.3525 14.80837334417283
